CZ-2D R/B               
1 28738U 05024B   25330.99613999  .00031642  00000+0  52337-3 0  9995
2 28738  97.3649 338.0435 0007680  52.9341 307.2613 15.52122792123812
ALOS (DAICHI)           
1 28931U 06002A   25330.82962387  .00002058  00000+0  35616-3 0  9997
2 28931  98.1072 282.4322 0000722  86.2881 273.8407 14.69413562 58374
H-2A R/B                
1 28932U 06002B   25330.92672811  .00012111  00000+0  64487-3 0  9998
2 28932  98.2311 104.3907 0054478 230.3187 129.3232 15.14098793 78875
RESURS-DK 1             
1 29228U 06021A   25330.82146735  .00003800  00000+0  22673-3 0  9994
2 29228  69.9317 142.9701 0007554 270.3468  89.6832 15.12022300 71971
CZ-4B R/B               
1 29507U 06046C   25331.05731909  .00006400  00000+0  33578-3 0  9995
2 29507  97.5758  11.2386 0032588 262.7168  97.0360 15.15639244 44491
CZ-2C R/B               
1 31114U 07010B   25330.93726897  .00000201  00000+0  11154-3 0  9999
2 31114  98.3969  84.3839 0058168 232.2631 127.3267 14.20199778965138
COSMO-SKYMED 1          
1 31598U 07023A   25331.20031904  .00005011  00000+0  45665-3 0  9996
2 31598  97.8846 156.4991 0001491  90.5775 269.5616 14.95593027999572
COSMOS 2428             
1 31792U 07029A   25330.66723148 -.00000076  00000+0 -15232-4 0  9991
2 31792  70.9374  59.6242 0002785  49.0814 311.0548 14.12886691949549
SL-16 R/B               
1 31793U 07029B   25331.18026640 -.00000059  00000+0 -56076-5 0  9996
2 31793  70.9778  27.8648 0002418 265.9880 113.6464 14.14817102950874
KORONAS-FOTON           
1 33504U 09003A   25331.10434995  .00014567  00000+0  35501-3 0  9995
2 33504  82.4326  22.2997 0012161 159.7392 200.4339 15.40691709929935
CZ-2C R/B               
1 37731U 11030B   25330.91839163  .00002106  00000+0  27375-3 0  9994
2 37731  97.8394 285.3783 0052169 326.3852  99.0734 14.80818190774887
H-2A R/B                
1 38341U 12025E   25330.90441223  .00004511  00000+0  41852-3 0  9990
2 38341  98.4582 284.9180 0043766 289.9977  69.6531 14.94291358732868
