CCSDS_OMM_VERS = 2.0
CREATION_DATE  = 
ORIGINATOR     = 

OBJECT_NAME    = CZ-2D R/B
OBJECT_ID      = 2005-024B
CENTER_NAME    = EARTH
REF_FRAME      = TEME
TIME_SYSTEM    = UTC
MEAN_ELEMENT_THEORY = SGP/SGP4

EPOCH          = 2025-11-26T23:54:26.495136
MEAN_MOTION    = 15.52122792
ECCENTRICITY   = .000768
INCLINATION    = 97.3649
RA_OF_ASC_NODE = 338.0435
ARG_OF_PERICENTER = 52.9341
MEAN_ANOMALY   = 307.2613

EPHEMERIS_TYPE = 0
CLASSIFICATION_TYPE = U
NORAD_CAT_ID   = 28738
ELEMENT_SET_NO = 999
REV_AT_EPOCH   = 12381
BSTAR          = .52337E-3
MEAN_MOTION_DOT = .31642E-3
MEAN_MOTION_DDOT = 0

CCSDS_OMM_VERS = 2.0
CREATION_DATE  = 
ORIGINATOR     = 

OBJECT_NAME    = ALOS (DAICHI)
OBJECT_ID      = 2006-002A
CENTER_NAME    = EARTH
REF_FRAME      = TEME
TIME_SYSTEM    = UTC
MEAN_ELEMENT_THEORY = SGP/SGP4

EPOCH          = 2025-11-26T19:54:39.502368
MEAN_MOTION    = 14.69413562
ECCENTRICITY   = .0000722
INCLINATION    = 98.1072
RA_OF_ASC_NODE = 282.4322
ARG_OF_PERICENTER = 86.2881
MEAN_ANOMALY   = 273.8407

EPHEMERIS_TYPE = 0
CLASSIFICATION_TYPE = U
NORAD_CAT_ID   = 28931
ELEMENT_SET_NO = 999
REV_AT_EPOCH   = 5837
BSTAR          = .35616E-3
MEAN_MOTION_DOT = .2058E-4
MEAN_MOTION_DDOT = 0

CCSDS_OMM_VERS = 2.0
CREATION_DATE  = 
ORIGINATOR     = 

OBJECT_NAME    = H-2A R/B
OBJECT_ID      = 2006-002B
CENTER_NAME    = EARTH
REF_FRAME      = TEME
TIME_SYSTEM    = UTC
MEAN_ELEMENT_THEORY = SGP/SGP4

EPOCH          = 2025-11-26T22:14:29.308704
MEAN_MOTION    = 15.14098793
ECCENTRICITY   = .0054478
INCLINATION    = 98.2311
RA_OF_ASC_NODE = 104.3907
ARG_OF_PERICENTER = 230.3187
MEAN_ANOMALY   = 129.3232

EPHEMERIS_TYPE = 0
CLASSIFICATION_TYPE = U
NORAD_CAT_ID   = 28932
ELEMENT_SET_NO = 999
REV_AT_EPOCH   = 7887
BSTAR          = .64487E-3
MEAN_MOTION_DOT = .12111E-3
MEAN_MOTION_DDOT = 0

CCSDS_OMM_VERS = 2.0
CREATION_DATE  = 
ORIGINATOR     = 

OBJECT_NAME    = RESURS-DK 1
OBJECT_ID      = 2006-021A
CENTER_NAME    = EARTH
REF_FRAME      = TEME
TIME_SYSTEM    = UTC
MEAN_ELEMENT_THEORY = SGP/SGP4

EPOCH          = 2025-11-26T19:42:54.779040
MEAN_MOTION    = 15.12022300
ECCENTRICITY   = .00075542
INCLINATION    = 69.9317
RA_OF_ASC_NODE = 142.9701
ARG_OF_PERICENTER = 270.3468
MEAN_ANOMALY   = 89.6832

EPHEMERIS_TYPE = 0
CLASSIFICATION_TYPE = U
NORAD_CAT_ID   = 29228
ELEMENT_SET_NO = 999
REV_AT_EPOCH   = 7197
BSTAR          = .22672692E-3
MEAN_MOTION_DOT = .38E-4
MEAN_MOTION_DDOT = 0

CCSDS_OMM_VERS = 2.0
CREATION_DATE  = 
ORIGINATOR     = 

OBJECT_NAME    = CZ-4B R/B
OBJECT_ID      = 2006-046C
CENTER_NAME    = EARTH
REF_FRAME      = TEME
TIME_SYSTEM    = UTC
MEAN_ELEMENT_THEORY = SGP/SGP4

EPOCH          = 2025-11-27T01:22:32.369376
MEAN_MOTION    = 15.15639244
ECCENTRICITY   = .0032588
INCLINATION    = 97.5758
RA_OF_ASC_NODE = 11.2386
ARG_OF_PERICENTER = 262.7168
MEAN_ANOMALY   = 97.0360

EPHEMERIS_TYPE = 0
CLASSIFICATION_TYPE = U
NORAD_CAT_ID   = 29507
ELEMENT_SET_NO = 999
REV_AT_EPOCH   = 4449
BSTAR          = .33578E-3
MEAN_MOTION_DOT = .64E-4
MEAN_MOTION_DDOT = 0

CCSDS_OMM_VERS = 2.0
CREATION_DATE  = 
ORIGINATOR     = 

OBJECT_NAME    = CZ-2C R/B
OBJECT_ID      = 2007-010B
CENTER_NAME    = EARTH
REF_FRAME      = TEME
TIME_SYSTEM    = UTC
MEAN_ELEMENT_THEORY = SGP/SGP4

EPOCH          = 2025-11-26T22:29:40.039008
MEAN_MOTION    = 14.20199778
ECCENTRICITY   = .0058168
INCLINATION    = 98.3969
RA_OF_ASC_NODE = 84.3839
ARG_OF_PERICENTER = 232.2631
MEAN_ANOMALY   = 127.3267

EPHEMERIS_TYPE = 0
CLASSIFICATION_TYPE = U
NORAD_CAT_ID   = 31114
ELEMENT_SET_NO = 999
REV_AT_EPOCH   = 96513
BSTAR          = .11154E-3
MEAN_MOTION_DOT = .201E-5
MEAN_MOTION_DDOT = 0

CCSDS_OMM_VERS = 2.0
CREATION_DATE  = 
ORIGINATOR     = 

OBJECT_NAME    = COSMO-SKYMED 1
OBJECT_ID      = 2007-023A
CENTER_NAME    = EARTH
REF_FRAME      = TEME
TIME_SYSTEM    = UTC
MEAN_ELEMENT_THEORY = SGP/SGP4

EPOCH          = 2025-11-27T04:48:27.565056
MEAN_MOTION    = 14.95593027
ECCENTRICITY   = .0001491
INCLINATION    = 97.8846
RA_OF_ASC_NODE = 156.4991
ARG_OF_PERICENTER = 90.5775
MEAN_ANOMALY   = 269.5616

EPHEMERIS_TYPE = 0
CLASSIFICATION_TYPE = U
NORAD_CAT_ID   = 31598
ELEMENT_SET_NO = 999
REV_AT_EPOCH   = 99957
BSTAR          = .45665E-3
MEAN_MOTION_DOT = .5011E-4
MEAN_MOTION_DDOT = 0

CCSDS_OMM_VERS = 2.0
CREATION_DATE  = 
ORIGINATOR     = 

OBJECT_NAME    = COSMOS 2428
OBJECT_ID      = 2007-029A
CENTER_NAME    = EARTH
REF_FRAME      = TEME
TIME_SYSTEM    = UTC
MEAN_ELEMENT_THEORY = SGP/SGP4

EPOCH          = 2025-11-26T16:00:48.799872
MEAN_MOTION    = 14.12886691
ECCENTRICITY   = .00027859
INCLINATION    = 70.9374
RA_OF_ASC_NODE = 59.6242
ARG_OF_PERICENTER = 49.0814
MEAN_ANOMALY   = 311.0548

EPHEMERIS_TYPE = 0
CLASSIFICATION_TYPE = U
NORAD_CAT_ID   = 31792
ELEMENT_SET_NO = 999
REV_AT_EPOCH   = 94954
BSTAR          = -.15232298E-4
MEAN_MOTION_DOT = -.76E-6
MEAN_MOTION_DDOT = 0

CCSDS_OMM_VERS = 2.0
CREATION_DATE  = 
ORIGINATOR     = 

OBJECT_NAME    = SL-16 R/B
OBJECT_ID      = 2007-029B
CENTER_NAME    = EARTH
REF_FRAME      = TEME
TIME_SYSTEM    = UTC
MEAN_ELEMENT_THEORY = SGP/SGP4

EPOCH          = 2025-11-27T04:19:35.016960
MEAN_MOTION    = 14.14817102
ECCENTRICITY   = .0002418
INCLINATION    = 70.9778
RA_OF_ASC_NODE = 27.8648
ARG_OF_PERICENTER = 265.9880
MEAN_ANOMALY   = 113.6464

EPHEMERIS_TYPE = 0
CLASSIFICATION_TYPE = U
NORAD_CAT_ID   = 31793
ELEMENT_SET_NO = 999
REV_AT_EPOCH   = 95087
BSTAR          = -.56076E-5
MEAN_MOTION_DOT = -.59E-6
MEAN_MOTION_DDOT = 0

CCSDS_OMM_VERS = 2.0
CREATION_DATE  = 
ORIGINATOR     = 

OBJECT_NAME    = KORONAS-FOTON
OBJECT_ID      = 2009-003A
CENTER_NAME    = EARTH
REF_FRAME      = TEME
TIME_SYSTEM    = UTC
MEAN_ELEMENT_THEORY = SGP/SGP4

EPOCH          = 2025-11-27T02:30:15.835680
MEAN_MOTION    = 15.40691709
ECCENTRICITY   = .0012161
INCLINATION    = 82.4326
RA_OF_ASC_NODE = 22.2997
ARG_OF_PERICENTER = 159.7392
MEAN_ANOMALY   = 200.4339

EPHEMERIS_TYPE = 0
CLASSIFICATION_TYPE = U
NORAD_CAT_ID   = 33504
ELEMENT_SET_NO = 999
REV_AT_EPOCH   = 92993
BSTAR          = .35501E-3
MEAN_MOTION_DOT = .14567E-3
MEAN_MOTION_DDOT = 0

CCSDS_OMM_VERS = 2.0
CREATION_DATE  = 
ORIGINATOR     = 

OBJECT_NAME    = CZ-2C R/B
OBJECT_ID      = 2011-030B
CENTER_NAME    = EARTH
REF_FRAME      = TEME
TIME_SYSTEM    = UTC
MEAN_ELEMENT_THEORY = SGP/SGP4

EPOCH          = 2025-11-26T22:02:29.036832
MEAN_MOTION    = 14.80818190
ECCENTRICITY   = .0052169
INCLINATION    = 97.8394
RA_OF_ASC_NODE = 285.3783
ARG_OF_PERICENTER = 326.3852
MEAN_ANOMALY   = 99.0734

EPHEMERIS_TYPE = 0
CLASSIFICATION_TYPE = U
NORAD_CAT_ID   = 37731
ELEMENT_SET_NO = 999
REV_AT_EPOCH   = 77488
BSTAR          = .27375E-3
MEAN_MOTION_DOT = .2106E-4
MEAN_MOTION_DDOT = 0

CCSDS_OMM_VERS = 2.0
CREATION_DATE  = 
ORIGINATOR     = 

OBJECT_NAME    = H-2A R/B
OBJECT_ID      = 2012-025E
CENTER_NAME    = EARTH
REF_FRAME      = TEME
TIME_SYSTEM    = UTC
MEAN_ELEMENT_THEORY = SGP/SGP4

EPOCH          = 2025-11-26T21:42:21.216672
MEAN_MOTION    = 14.94291358
ECCENTRICITY   = .0043766
INCLINATION    = 98.4582
RA_OF_ASC_NODE = 284.9180
ARG_OF_PERICENTER = 289.9977
MEAN_ANOMALY   = 69.6531

EPHEMERIS_TYPE = 0
CLASSIFICATION_TYPE = U
NORAD_CAT_ID   = 38341
ELEMENT_SET_NO = 999
REV_AT_EPOCH   = 73286
BSTAR          = .41852E-3
MEAN_MOTION_DOT = .4511E-4
MEAN_MOTION_DDOT = 0

